STARLINK-2654           
1 48454U 21040AC  26068.61511019  .00007068  00000+0  25046-3 0  9998
2 48454  53.1603 178.4674 0001338  68.4218 291.6926 15.30209025266675
TEVEL2-3                
1 63218U 25052J   26068.64540225  .00020365  00000+0  69446-3 0  9991
2 63218  97.3994 324.7775 0004761 105.7353 254.4413 15.30377031 54855
